{"fetched_at":"2026-03-29T16:36:15Z","count":15609,"tles":[{"name":"YAOGAN-43 03A","line1":"1 61617U 24190A   26084.99638652  .00001204  00000+0  51554-4 0  9995","line2":"2 61617  34.9914   0.9785 0006465 296.9618  63.0436 15.22960847 79174","category":"Other"}]}